{
    "links": {
        "self": "http://www.neowsapp.com/rest/v1/neo/3892705?api_key=iIulBulltgU6a56xZRHN4H3l9WmuAYTsLGpBGhQ2"
    },
    "id": "3892705",
    "neo_reference_id": "3892705",
    "name": "(2019 VW3)",
    "designation": "2019 VW3",
    "nasa_jpl_url": "http://ssd.jpl.nasa.gov/sbdb.cgi?sstr=3892705",
    "absolute_magnitude_h": 26.7,
    "estimated_diameter": {
        "kilometers": {
            "estimated_diameter_min": 0.0121494041,
            "estimated_diameter_max": 0.0271668934
        },
        "meters": {
            "estimated_diameter_min": 12.14940408,
            "estimated_diameter_max": 27.1668934089
        },
        "miles": {
            "estimated_diameter_min": 0.0075492874,
            "estimated_diameter_max": 0.0168807197
        },
        "feet": {
            "estimated_diameter_min": 39.8602508817,
            "estimated_diameter_max": 89.1302305717
        }
    },
    "is_potentially_hazardous_asteroid": false,
    "close_approach_data": [
        {
            "close_approach_date": "2019-11-08",
            "close_approach_date_full": "2019-Nov-08 18:39",
            "epoch_date_close_approach": 1573238340000,
            "relative_velocity": {
                "kilometers_per_second": "8.1346781448",
                "kilometers_per_hour": "29284.8413213352",
                "miles_per_hour": "18196.4615421374"
            },
            "miss_distance": {
                "astronomical": "0.0602276494",
                "lunar": "23.4285556166",
                "kilometers": "9009928.065346778",
                "miles": "5598509.6934624164"
            },
            "orbiting_body": "Earth"
        }
    ],
    "orbital_data": {
        "orbit_id": "1",
        "orbit_determination_date": "2019-11-06 15:42:27",
        "first_observation_date": "2019-11-05",
        "last_observation_date": "2019-11-06",
        "data_arc_in_days": 1,
        "observations_used": 13,
        "orbit_uncertainty": "9",
        "minimum_orbit_intersection": ".0585864",
        "jupiter_tisserand_invariant": "3.232",
        "epoch_osculation": "2458793.5",
        "eccentricity": ".5744559901271288",
        "semi_major_axis": "2.455479272088363",
        "inclination": "8.143440706465666",
        "ascending_node_longitude": "223.6319304522947",
        "orbital_period": "1405.409340097215",
        "perihelion_distance": "1.044914495604201",
        "perihelion_argument": "191.3761009658501",
        "aphelion_distance": "3.866044048572525",
        "perihelion_time": "2458803.604175379236",
        "mean_anomaly": "357.4117838605845",
        "mean_motion": ".2561531290058867",
        "equinox": "J2000",
        "orbit_class": {
            "orbit_class_type": "AMO",
            "orbit_class_description": "Near-Earth asteroid orbits similar to that of 1221 Amor",
            "orbit_class_range": "1.017 AU < q (perihelion) < 1.3 AU"
        }
    },
    "is_sentry_object": false
}